NORAD_CAT_ID,OBJECT_NAME,OBJECT_TYPE,EPOCH,MEAN_MOTION,ECCENTRICITY,INCLINATION,RA_OF_ASC_NODE,ARG_OF_PERICENTER,MEAN_ANOMALY,BSTAR,MEAN_MOTION_DOT,MEAN_MOTION_DDOT,TLE_LINE0,TLE_LINE1,TLE_LINE2,SEMIMAJOR_AXIS,PERIOD,APOGEE,PERIGEE,DECAYED
52263.0,STARLINK-3786,PAYLOAD,2023-05-26 19:18:22,15.0884335,0.0001247,53.2174,358.5833,74.9745,285.1385,0.00012876,1.762e-05,0.0,0 STARLINK-3786,1 52263U 22041C   23146.80442920  .00001762  00000-0  12876-3 0  9995,2 52263  53.2174 358.5833 0001247  74.9745 285.1385 15.08843350 61902,6917.87,95.437,540.598,538.872,0.0
52263.0,STARLINK-3786,PAYLOAD,2023-05-26 20:53:45,15.08842013,0.000123,53.2176,358.286,73.3643,286.7484,9.7186e-05,1.259e-05,0.0,0 STARLINK-3786,1 52263U 22041C   23146.87066962  .00001259  00000-0  97186-4 0  9999,2 52263  53.2176 358.2860 0001230  73.3643 286.7484 15.08842013 60702,6917.874,95.437,540.59,538.888,0.0
52263.0,STARLINK-3786,PAYLOAD,2023-05-27 20:44:32,15.08843135,0.0001085,53.2173,353.8272,82.9342,277.1773,0.00010768,1.426e-05,0.0,0 STARLINK-3786,1 52263U 22041C   23147.86426856  .00001426  00000-0  10768-3 0  9997,2 52263  53.2173 353.8272 0001085  82.9342 277.1773 15.08843135 62069,6917.871,95.437,540.486,538.985,0.0
52263.0,STARLINK-3786,PAYLOAD,2023-05-28 06:16:51,15.08840158,0.0001048,53.2169,352.0435,82.806,277.3051,8.2014e-05,1.018e-05,0.0,0 STARLINK-3786,1 52263U 22041C   23148.26171139  .00001018  00000-0  82014-4 0  9994,2 52263  53.2169 352.0435 0001048  82.8060 277.3051 15.08840158 60916,6917.88,95.438,540.47,539.02,0.0
52263.0,STARLINK-3786,PAYLOAD,2023-05-28 20:35:19,15.08842039,0.0001031,53.217,349.3671,83.4857,276.6252,9.3339e-05,1.198e-05,0.0,0 STARLINK-3786,1 52263U 22041C   23148.85787003  .00001198  00000-0  93339-4 0  9993,2 52263  53.2170 349.3671 0001031  83.4857 276.6252 15.08842039 61008,6917.874,95.437,540.452,539.026,0.0
52263.0,STARLINK-3786,PAYLOAD,2023-05-28 22:10:42,15.08844767,0.0001096,53.2173,349.0691,79.0799,281.0316,0.00011265,1.506e-05,0.0,0 STARLINK-3786,1 52263U 22041C   23148.92410790  .00001506  00000-0  11265-3 0  9997,2 52263  53.2173 349.0691 0001096  79.0799 281.0316 15.08844767 62223,6917.866,95.437,540.489,538.973,0.0
52263.0,STARLINK-3786,PAYLOAD,2023-05-29 06:07:39,15.08836374,0.000113,53.2176,347.582,79.714,280.398,7.9382e-05,9.76e-06,0.0,0 STARLINK-3786,1 52263U 22041C   23149.25531435  .00000976  00000-0  79382-4 0  9999,2 52263  53.2176 347.5820 0001130  79.7140 280.3980 15.08836374 62278,6917.891,95.438,540.538,538.975,0.0
52263.0,STARLINK-3786,PAYLOAD,2023-05-29 12:29:11,15.08837755,0.0001117,53.2174,346.3927,81.8651,278.2468,3.4895e-05,2.68e-06,0.0,0 STARLINK-3786,1 52263U 22041C   23149.52027514  .00000268  00000-0  34895-4 0  9991,2 52263  53.2174 346.3927 0001117  81.8651 278.2468 15.08837755 61109,6917.887,95.438,540.525,538.98,0.0
52263.0,STARLINK-3786,PAYLOAD,2023-05-29 20:26:07,15.08839167,0.0001098,53.2173,344.9057,83.3146,276.7971,3.0208e-05,1.93e-06,0.0,0 STARLINK-3786,1 52263U 22041C   23149.85147433  .00000193  00000-0  30208-4 0  9991,2 52263  53.2173 344.9057 0001098  83.3146 276.7971 15.08839167 61156,6917.883,95.438,540.508,538.988,0.0
52263.0,STARLINK-3786,PAYLOAD,2023-05-30 15:30:44,15.08840812,0.0001121,53.2175,341.3371,86.4753,273.6367,6.8013e-05,7.95e-06,0.0,0 STARLINK-3786,1 52263U 22041C   23150.64635277  .00000795  00000-0  68013-4 0  9991,2 52263  53.2175 341.3371 0001121  86.4753 273.6367 15.08840812 62484,6917.878,95.438,540.518,538.967,0.0
52263.0,STARLINK-3786,PAYLOAD,2023-05-30 21:52:17,15.0884564,0.0001091,53.2175,340.1476,85.9725,274.1392,7.7711e-05,9.49e-06,0.0,0 STARLINK-3786,1 52263U 22041C   23150.91130907  .00000949  00000-0  77711-4 0  9997,2 52263  53.2175 340.1476 0001091  85.9725 274.1392 15.08845640 61315,6917.863,95.437,540.483,538.973,0.0
52263.0,STARLINK-3786,PAYLOAD,2023-05-31 12:10:45,15.08840001,9.89e-05,53.2173,337.4717,89.4738,270.6367,0.00011496,1.542e-05,0.0,0 STARLINK-3786,1 52263U 22041C   23151.50747142  .00001542  00000-0  11496-3 0  9995,2 52263  53.2173 337.4717 0000989  89.4738 270.6367 15.08840001 61407,6917.88,95.438,540.43,539.061,0.0
52263.0,STARLINK-3786,PAYLOAD,2023-05-31 18:32:17,15.08843235,9.77e-05,53.2172,336.2824,89.1634,270.9471,0.00013587,1.875e-05,0.0,0 STARLINK-3786,1 52263U 22041C   23151.77242911  .00001875  00000-0  13587-3 0  9990,2 52263  53.2172 336.2824 0000977  89.1634 270.9471 15.08843235 62650,6917.871,95.437,540.411,539.06,0.0
52263.0,STARLINK-3786,PAYLOAD,2023-05-31 20:07:40,15.08847776,0.0001055,53.2173,335.9847,88.5594,271.5519,0.00015182,2.13e-05,0.0,0 STARLINK-3786,1 52263U 22041C   23151.83866593  .00002130  00000-0  15182-3 0  9993,2 52263  53.2173 335.9847 0001055  88.5594 271.5519 15.08847776 61459,6917.857,95.437,540.451,538.992,0.0
52263.0,STARLINK-3786,PAYLOAD,2023-06-01 05:39:59,15.08844418,0.0001054,53.2171,334.2014,84.4582,275.653,0.00010438,1.374e-05,0.0,0 STARLINK-3786,1 52263U 22041C   23152.23610866  .00001374  00000-0  10438-3 0  9996,2 52263  53.2171 334.2014 0001054  84.4582 275.6530 15.08844418 61511,6917.867,95.437,540.461,539.003,0.0
52263.0,STARLINK-3786,PAYLOAD,2023-06-01 21:33:51,15.08843004,0.0001107,53.2169,331.2276,84.7308,275.3811,3.4361e-05,2.59e-06,0.0,0 STARLINK-3786,1 52263U 22041C   23152.89851018  .00000259  00000-0  34361-4 0  9997,2 52263  53.2169 331.2276 0001107  84.7308 275.3811 15.08843004 61613,6917.871,95.437,540.502,538.97,0.0
52263.0,STARLINK-3786,PAYLOAD,2023-06-02 11:52:20,15.08824522,0.0001145,53.2168,328.5501,94.1043,266.008,0.0001458,2.032e-05,0.0,0 STARLINK-3786,1 52263U 22041C   23153.49467960  .00002032  00000-0  14580-3 0  9994,2 52263  53.2168 328.5501 0001145  94.1043 266.0080 15.08824522 61704,6917.928,95.439,540.585,539.001,0.0
52263.0,STARLINK-3786,PAYLOAD,2023-06-02 18:13:52,15.08830799,0.0001086,53.2171,327.3604,92.0904,268.0213,0.00010129,1.324e-05,0.0,0 STARLINK-3786,1 52263U 22041C   23153.75963710  .00001324  00000-0  10129-3 0  9995,2 52263  53.2171 327.3604 0001086  92.0904 268.0213 15.08830799 62957,6917.909,95.438,540.525,539.022,0.0
52263.0,STARLINK-3786,PAYLOAD,2023-06-03 18:04:39,15.08838442,0.0001083,53.2175,322.9006,88.9113,271.2003,5.4924e-05,5.86e-06,0.0,0 STARLINK-3786,1 52263U 22041C   23154.75323488  .00000586  00000-0  54924-4 0  9999,2 52263  53.2175 322.9006 0001083  88.9113 271.2003 15.08838442 61899,6917.885,95.438,540.499,539.001,0.0
52263.0,STARLINK-3786,PAYLOAD,2023-06-03 22:50:48,15.08841795,0.000102,53.2178,322.0087,90.5311,269.5798,8.0424e-05,9.92e-06,0.0,0 STARLINK-3786,1 52263U 22041C   23154.95195247  .00000992  00000-0  80424-4 0  9996,2 52263  53.2178 322.0087 0001020  90.5311 269.5798 15.08841795 63137,6917.875,95.437,540.446,539.034,0.0
52263.0,STARLINK-3786,PAYLOAD,2023-06-04 14:44:40,15.08838909,0.0001071,53.2178,319.033,86.9012,273.2102,7.59e-05,9.2e-06,0.0,0 STARLINK-3786,1 52263U 22041C   23155.61435659  .00000920  00000-0  75900-4 0  9998,2 52263  53.2178 319.0330 0001071  86.9012 273.2102 15.08838909 62028,6917.884,95.438,540.49,539.008,0.0
52263.0,STARLINK-3786,PAYLOAD,2023-06-04 16:20:03,15.08838204,0.0001094,53.2174,318.7368,74.0977,286.0136,7.7921e-05,9.52e-06,0.0,0 STARLINK-3786,1 52263U 22041C   23155.68059751  .00000952  00000-0  77921-4 0  9990,2 52263  53.2174 318.7368 0001094  74.0977 286.0136 15.08838204 63246,6917.886,95.438,540.508,538.994,0.0
52263.0,STARLINK-3786,PAYLOAD,2023-06-05 03:27:45,15.08829671,7.91e-05,53.218,316.6559,92.1213,267.9869,1.1838e-05,-9.9e-07,0.0,0 STARLINK-3786,1 52263U 22041C   23156.14428234 -.00000099  00000-0  11838-4 0  9996,2 52263  53.2180 316.6559 0000791  92.1213 267.9869 15.08829671 63316,6917.912,95.438,540.324,539.23,0.0
52263.0,STARLINK-3786,PAYLOAD,2023-06-05 13:00:04,15.08835542,6.53e-05,53.2181,314.8711,95.6429,264.4637,-1.8958e-05,-5.89e-06,0.0,0 STARLINK-3786,1 52263U 22041C   23156.54172210 -.00000589  00000-0 -18958-4 0  9995,2 52263  53.2181 314.8711 0000653  95.6429 264.4637 15.08835542 62162,6917.894,95.438,540.211,539.307,0.0
52263.0,STARLINK-3786,PAYLOAD,2023-06-05 19:21:36,15.08848381,9.68e-05,53.2176,313.6823,87.9075,272.2028,9.7493e-05,1.265e-05,0.0,0 STARLINK-3786,1 52263U 22041C   23156.80667051  .00001265  00000-0  97493-4 0  9997,2 52263  53.2176 313.6823 0000968  87.9075 272.2028 15.08848381 62208,6917.855,95.437,540.389,539.05,0.0
52263.0,STARLINK-3786,PAYLOAD,2023-06-06 12:50:51,15.08834494,9.67e-05,53.2176,310.4132,88.0129,272.0974,3.0882e-05,2.04e-06,0.0,0 STARLINK-3786,1 52263U 22041C   23157.53532303  .00000204  00000-0  30882-4 0  9990,2 52263  53.2176 310.4132 0000967  88.0129 272.0974 15.08834494 62317,6917.897,95.438,540.431,539.093,0.0
52263.0,STARLINK-3786,PAYLOAD,2023-06-06 16:01:37,15.08840468,0.0001111,53.2176,309.8168,92.5179,267.5941,-3.7882e-06,-3.48e-06,0.0,0 STARLINK-3786,1 52263U 22041C   23157.66780034 -.00000348  00000-0 -37882-5 0  9999,2 52263  53.2176 309.8168 0001111  92.5179 267.5941 15.08840468 63542,6917.879,95.438,540.513,538.975,0.0
52263.0,STARLINK-3786,PAYLOAD,2023-06-07 12:41:38,15.08838146,0.0001195,53.2182,305.9533,94.2929,265.8199,3.3311e-05,2.42e-06,0.0,0 STARLINK-3786,1 52263U 22041C   23158.52892177  .00000242  00000-0  33311-4 0  9990,2 52263  53.2182 305.9533 0001195  94.2929 265.8199 15.08838146 62462,6917.886,95.438,540.578,538.924,0.0
52263.0,STARLINK-3786,PAYLOAD,2023-06-07 17:27:48,15.08841993,0.0001157,53.218,305.0608,92.6466,267.4659,2.3548e-05,8.7e-07,0.0,0 STARLINK-3786,1 52263U 22041C   23158.72763978  .00000087  00000-0  23548-4 0  9996,2 52263  53.2180 305.0608 0001157  92.6466 267.4659 15.08841993 63701,6917.874,95.437,540.54,538.939,0.0
52263.0,STARLINK-3786,PAYLOAD,2023-06-07 19:03:10,15.08845963,0.000106,53.2173,304.7617,90.1234,269.988,4.1098e-05,3.66e-06,0.0,0 STARLINK-3786,1 52263U 22041C   23158.79387635  .00000366  00000-0  41098-4 0  9995,2 52263  53.2173 304.7617 0001060  90.1234 269.9880 15.08845963 62509,6917.862,95.437,540.46,538.994,0.0
